0 THOR AGENA D R/B
1 02255U 66056B   13282.33158137  .00000002  00000-0  00000+0 0  5306
2 02255 086.9445 233.0564 0047642 337.1302 181.9606 07.94760853372470
0 THOR AGENA D R/B
1 02255U 66056B   13286.36002242  .00000002  00000-0  00000+0 0  5319
2 02255 086.9455 232.6959 0047540 333.8575 187.8327 07.94760719372797
0 THOR AGENA D R/B
1 02255U 66056B   13291.26819287  .00000002  00000-0  00000+0 0  5320
2 02255 086.9467 232.2567 0047437 330.0392 190.5414 07.94760793373186
0 THOR AGENA D R/B
1 02255U 66056B   13295.29589914  .00000002  00000-0  00000+0 0  5339
2 02255 086.9477 231.8963 0047275 326.8118 194.2622 07.94760775373509
